GLOBALSTAR M094         
1 39074U 13005C   25157.48676562 -.00000083  00000+0  11358-3 0  9998
2 39074  51.9941 214.6961 0000365 196.0825 164.0030 12.62262601571025
GLOBALSTAR M096         
1 39075U 13005D   25157.26239517 -.00000098  00000+0  34734-4 0  9990
2 39075  52.0076 263.8848 0000660 156.4572 203.6325 12.62271784569918
GLOBALSTAR M078         
1 39076U 13005E   25157.55263620 -.00000175  00000+0 -39509-3 0  9996
2 39076  51.9896 347.5248 0001413 127.2336 232.8660 12.62260726568573
GLOBALSTAR M095         
1 39077U 13005F   25157.49981760 -.00000088  00000+0  88513-4 0  9994
2 39077  51.9816 344.8871 0000934 127.1063 232.9888 12.62263460568426
GLOBALSTAR M087         
1 52888U 22064A   25157.37213770 -.00000095  00000+0  47900-4 0  9993
2 52888  51.9975 126.7239 0000203  53.4159 306.6726 12.62263528143679
